GOES 16                 
1 41866U 16071A   26199.58308632 -.00000098  00000+0  00000+0 0  9998
2 41866   0.4128  85.4576 0000592  81.9305 234.2062  1.00271369 35410
TIANLIAN 1-04           
1 41869U 16072A   26199.72860378  .00000023  00000+0  00000+0 0  9995
2 41869   0.9470  82.6976 0044244  90.8170 202.0736  1.00271730 35617
WGS F8 (USA 272)        
1 41879U 16075A   26199.63920059 -.00000209  00000+0  00000+0 0  9999
2 41879   0.0189  49.4051 0000230  35.0841 231.8804  1.00273652 35132
FENGYUN 4A              
1 41882U 16077A   26199.21908161 -.00000366  00000+0  00000+0 0  9993
2 41882   2.3999  79.9326 0008408 159.8070 258.8550  1.00266586 35244
ECHOSTAR 19             
1 41893U 16079A   26199.67439388 -.00000145  00000+0  00000+0 0  9992
2 41893   0.0185  58.6116 0001416  58.7280 324.8125  1.00270981 35012
JCSAT-110A (JCSAT-15)   
1 41903U 16082A   26199.95975690 -.00000357  00000+0  00000+0 0  9995
2 41903   0.0190  53.8176 0000691  71.7889 266.7298  1.00272973 35071
STAR ONE D1             
1 41904U 16082B   26199.57753144 -.00000218  00000+0  00000+0 0  9998
2 41904   0.0066 320.7168 0002246 158.3511 301.2233  1.00270352 35087
TJS-2                   
1 41911U 17001A   26199.78636400 -.00000013  00000+0  00000+0 0  9999
2 41911   0.9130  84.9065 0000824  97.8190 103.4753  1.00271625 35039
SBIRS GEO-4 (USA 273)   
1 41937U 17004A   26199.91856711  .00000121  00000+0  00000+0 0  9993
2 41937   2.3034  44.0901 0002727  66.7929 178.2878  1.00280729 34910
HISPASAT 36W-1          
1 41942U 17006A   26199.75781058 -.00000251  00000+0  00000+0 0  9999
2 41942   0.0360 247.4458 0001008 220.5220  65.3947  1.00271662 34564
TELKOM 3S               
1 41944U 17007A   26199.80669727  .00000000  00000+0  00000+0 0  9997
2 41944   0.0158  65.0467 0002482  53.8958 226.0835  1.00269689 34453
INTELSAT 32E (IS-32E)   
1 41945U 17007B   26199.79697495  .00000000  00000+0  00000+0 0  9999
2 41945   0.0187  54.3733 0000560 331.4468 154.5136  1.00270367 34543
ECHOSTAR 23             
1 42070U 17014A   26199.58308632 -.00000064  00000+0  00000+0 0  9997
2 42070   0.0189  52.1053 0002188  61.2881 282.9949  1.00272052 34238
WGS F9 (USA 275)        
1 42075U 17016A   26199.76225269  .00000000  00000+0  00000+0 0  9997
2 42075   0.0197  57.5809 0000124 154.1241 347.3048  1.00270327 34217
SES-10                  
1 42432U 17017A   26199.75157056 -.00000279  00000+0  00000+0 0  9991
2 42432   0.0164  48.5114 0002656  71.3441  20.3604  1.00272108 34070
CHINASAT 16 (SJ-13)     
1 42662U 17018A   26199.28774784 -.00000360  00000+0  00000+0 0  9999
2 42662   0.0900  88.7932 0004891 131.8181 289.5920  1.00273710 34062
KOREASAT 7              
1 42691U 17023A   26199.89767392 -.00000368  00000+0  00000+0 0  9999
2 42691   0.0192 355.0584 0000847 113.8681 266.8249  1.00272981 33680
SGDC                    
1 42692U 17023B   26199.38522609 -.00000257  00000+0  00000+0 0  9991
2 42692   0.0117 340.4018 0002237 137.4821 242.1193  1.00273224 33722
GSAT-9                  
1 42695U 17024A   26199.86433176 -.00000293  00000+0  00000+0 0  9998
2 42695   0.0943  90.8344 0002318  23.3991 230.8580  1.00275274 33610
INMARSAT 5-F4           
1 42698U 17025A   26199.18169799  .00000067  00000+0  00000+0 0  9992
2 42698   0.0196  50.5838 0000452 126.3115 241.0035  1.00272215 33580
SES-15                  
1 42709U 17026A   26199.59419865  .00000053  00000+0  00000+0 0  9998
2 42709   0.0275 325.4278 0000419 131.0445 284.6731  1.00268239  7741
QZS-2 (MICHIBIKI-2)     
1 42738U 17028A   26199.43831785 -.00000149  00000+0  00000+0 0  9991
2 42738  39.3821 242.6931 0757128 269.6378  84.1694  1.00275918  7945
VIASAT-2                
1 42740U 17029A   26199.75096389 -.00000272  00000+0  00000+0 0  9990
2 42740   0.0215 300.2674 0000375 228.3229 328.3965  1.00269288 33527
EUTELSAT 172B           
1 42741U 17029B   26199.72765044 -.00000013  00000+0  00000+0 0  9992
2 42741   0.0268 123.7295 0000133 202.2530  44.4778  1.00270414 34051
GSAT-19                 
1 42747U 17031A   26199.94073789  .00000119  00000+0  00000+0 0  9999
2 42747   0.0482  89.6495 0006270   2.5085 231.0974  1.00271099 33467
ECHOSTAR 21             
1 42749U 17032A   26199.78517021  .00000059  00000+0  00000+0 0  9999
2 42749   1.7704 357.7680 0002285 108.8327 122.8872  1.00270955 33419
BULGARIASAT-1           
1 42801U 17038A   26199.79072490  .00000004  00000+0  00000+0 0  9991
2 42801   0.0120  34.4061 0003032  88.8890  99.8454  1.00272051 33167
HELLAS-SAT 3            
1 42814U 17040A   26199.93292372  .00000146  00000+0  00000+0 0  9994
2 42814   0.0580  55.4651 0003261  23.9540 232.1563  1.00273597 33120
GSAT-17                 
1 42815U 17040B   26199.89350366 -.00000264  00000+0  00000+0 0  9990
2 42815   0.0510 254.5673 0002232  24.2158  73.0448  1.00271955 33104
INTELSAT 35E (IS-35E)   
1 42818U 17041A   26199.75807058 -.00000245  00000+0  00000+0 0  9993
2 42818   0.0167  64.6546 0001946  53.5774  56.7266  1.00272651 33137
COSMOS 2520             
1 42907U 17046A   26199.75044517  .00000130  00000+0  00000+0 0  9992
2 42907   0.0353 107.3926 0000839 343.1189 161.2276  1.00279605 32710
TDRS 13                 
1 42915U 17047A   26199.76225269 -.00000107  00000+0  00000+0 0  9993
2 42915   3.4605   3.5116 0014902 111.4381  84.6182  1.00272100 32661
