OBJECT_NAME,OBJECT_ID,EPOCH,MEAN_MOTION,ECCENTRICITY,INCLINATION,RA_OF_ASC_NODE,ARG_OF_PERICENTER,MEAN_ANOMALY,EPHEMERIS_TYPE,CLASSIFICATION_TYPE,NORAD_CAT_ID,ELEMENT_SET_NO,REV_AT_EPOCH,BSTAR,MEAN_MOTION_DOT,MEAN_MOTION_DDOT
GOES 16,2016-071A,2026-07-18T13:59:38.658048,1.00271369,.00005925,0.4128,85.4576,81.9305,234.2062,0,U,41866,999,3541,0,-.98E-6,0
TIANLIAN 1-04,2016-072A,2026-07-18T17:29:11.366592,1.00271730,.00442445,0.9470,82.6976,90.8170,202.0736,0,U,41869,999,3561,0,.23E-6,0
WGS F8 (USA 272),2016-075A,2026-07-18T15:20:26.930976,1.00273652,.00002309,0.0189,49.4051,35.0841,231.8804,0,U,41879,999,3513,0,-.209E-5,0
FENGYUN 4A,2016-077A,2026-07-18T05:15:28.651104,1.00266586,.00084089,2.3999,79.9326,159.8070,258.8550,0,U,41882,999,3524,0,-.366E-5,0
ECHOSTAR 19,2016-079A,2026-07-18T16:11:07.631232,1.00270981,.00014166,0.0185,58.6116,58.7280,324.8125,0,U,41893,999,3501,0,-.145E-5,0
JCSAT-110A (JCSAT-15),2016-082A,2026-07-18T23:02:02.996160,1.00272973,.0000691,0.0190,53.8176,71.7889,266.7298,0,U,41903,999,3507,0,-.357E-5,0
STAR ONE D1,2016-082B,2026-07-18T13:51:38.716416,1.00270352,.0002246,0.0066,320.7168,158.3511,301.2233,0,U,41904,999,3508,0,-.218E-5,0
TJS-2,2017-001A,2026-07-18T18:52:21.849600,1.00271625,.0000824,0.9130,84.9065,97.8190,103.4753,0,U,41911,999,3503,0,-.13E-6,0
SBIRS GEO-4 (USA 273),2017-004A,2026-07-18T22:02:44.198304,1.00280729,.00027272,2.3034,44.0901,66.7929,178.2878,0,U,41937,999,3491,0,.121E-5,0
HISPASAT 36W-1,2017-006A,2026-07-18T18:11:14.834112,1.00271662,.00010088,0.0360,247.4458,220.5220,65.3947,0,U,41942,999,3456,0,-.251E-5,0
TELKOM 3S,2017-007A,2026-07-18T19:21:38.644128,1.00269689,.00024822,0.0158,65.0467,53.8958,226.0835,0,U,41944,999,3445,0,0,0
INTELSAT 32E (IS-32E),2017-007B,2026-07-18T19:07:38.635680,1.00270367,.00005604,0.0187,54.3733,331.4468,154.5136,0,U,41945,999,3454,0,0,0
ECHOSTAR 23,2017-014A,2026-07-18T13:59:38.658048,1.00272052,.00021886,0.0189,52.1053,61.2881,282.9949,0,U,42070,999,3423,0,-.64E-6,0
WGS F9 (USA 275),2017-016A,2026-07-18T18:17:38.632416,1.00270327,.00001241,0.0197,57.5809,154.1241,347.3048,0,U,42075,999,3421,0,0,0
SES-10,2017-017A,2026-07-18T18:02:15.696384,1.00272108,.00026569,0.0164,48.5114,71.3441,20.3604,0,U,42432,999,3407,0,-.279E-5,0
CHINASAT 16 (SJ-13),2017-018A,2026-07-18T06:54:21.413376,1.00273710,.00048912,0.0900,88.7932,131.8181,289.5920,0,U,42662,999,3406,0,-.36E-5,0
KOREASAT 7,2017-023A,2026-07-18T21:32:39.026688,1.00272981,.00008471,0.0192,355.0584,113.8681,266.8249,0,U,42691,999,3368,0,-.368E-5,0
SGDC,2017-023B,2026-07-18T09:14:43.534176,1.00273224,.0002237,0.0117,340.4018,137.4821,242.1193,0,U,42692,999,3372,0,-.257E-5,0
GSAT-9,2017-024A,2026-07-18T20:44:38.264064,1.00275274,.00023181,0.0943,90.8344,23.3991,230.8580,0,U,42695,999,3361,0,-.293E-5,0
INMARSAT 5-F4,2017-025A,2026-07-18T04:21:38.706336,1.00272215,.00004524,0.0196,50.5838,126.3115,241.0035,0,U,42698,999,3358,0,.67E-6,0
SES-15,2017-026A,2026-07-18T14:15:38.763360,1.00268239,.00004191,0.0275,325.4278,131.0445,284.6731,0,U,42709,999,774,0,.53E-6,0
QZS-2 (MICHIBIKI-2),2017-028A,2026-07-18T10:31:10.662240,1.00275918,.07571283,39.3821,242.6931,269.6378,84.1694,0,U,42738,999,794,0,-.149E-5,0
VIASAT-2,2017-029A,2026-07-18T18:01:23.280096,1.00269288,.00003755,0.0215,300.2674,228.3229,328.3965,0,U,42740,999,3352,0,-.272E-5,0
EUTELSAT 172B,2017-029B,2026-07-18T17:27:48.998016,1.00270414,.00001331,0.0268,123.7295,202.2530,44.4778,0,U,42741,999,3405,0,-.13E-6,0
GSAT-19,2017-031A,2026-07-18T22:34:39.753696,1.00271099,.00062707,0.0482,89.6495,2.5085,231.0974,0,U,42747,999,3346,0,.119E-5,0
ECHOSTAR 21,2017-032A,2026-07-18T18:50:38.706144,1.00270955,.0002285,1.7704,357.7680,108.8327,122.8872,0,U,42749,999,3341,0,.59E-6,0
BULGARIASAT-1,2017-038A,2026-07-18T18:58:38.631360,1.00272051,.00030326,0.0120,34.4061,88.8890,99.8454,0,U,42801,999,3316,0,.4E-7,0
HELLAS-SAT 3,2017-040A,2026-07-18T22:23:24.609408,1.00273597,.00032618,0.0580,55.4651,23.9540,232.1563,0,U,42814,999,3312,0,.146E-5,0
GSAT-17,2017-040B,2026-07-18T21:26:38.716224,1.00271955,.00022326,0.0510,254.5673,24.2158,73.0448,0,U,42815,999,3310,0,-.264E-5,0
INTELSAT 35E (IS-35E),2017-041A,2026-07-18T18:11:37.298112,1.00272651,.00019466,0.0167,64.6546,53.5774,56.7266,0,U,42818,999,3313,0,-.245E-5,0
COSMOS 2520,2017-046A,2026-07-18T18:00:38.462688,1.00279605,.00008397,0.0353,107.3926,343.1189,161.2276,0,U,42907,999,3271,0,.13E-5,0
TDRS 13,2017-047A,2026-07-18T18:17:38.632416,1.00272100,.00149022,3.4605,3.5116,111.4381,84.6182,0,U,42915,999,3266,0,-.107E-5,0
